MESON-1                 
1 59131U 24043AK  26068.90019075  .00008544  00000+0  29748-3 0  9998
2 59131  97.5469 205.2839 0009545 227.1432 132.9007 15.29893494111890
STARLINK-35894          
1 66500U 25263R   26068.12947469  .00031549  00000+0  11503-2 0  9992
2 66500  43.0052 357.2906 0001974 261.2199  98.8430 15.27600519 18777
